HST                     
1 20580U 90037B   24025.93436184  .00006637  00000+0  32951-3 0  9999
2 20580  28.4665 223.3460 0002300 281.0766  78.9567 15.15692008655266
